STARLINK-1182_new
1 15077C 20006AK  21326.15745897  .00501818  00000-0  11644-1 0  3265
2 15077  53.0546  81.5154 0001805  38.2652 186.6960 15.41305550    18
STARLINK-1182_old
1 25077C 20006AK  21324.99862590  .00496444  00000-0  11892-1 0  3246
2 25077  53.0547  87.0002 0001768  43.0579 229.7365 15.40354537    18
